NORAD_CAT_ID,OBJECT_NAME,OBJECT_TYPE,EPOCH,MEAN_MOTION,ECCENTRICITY,INCLINATION,RA_OF_ASC_NODE,ARG_OF_PERICENTER,MEAN_ANOMALY,BSTAR,MEAN_MOTION_DOT,MEAN_MOTION_DDOT,TLE_LINE0,TLE_LINE1,TLE_LINE2,SEMIMAJOR_AXIS,PERIOD,APOGEE,PERIGEE,DECAYED
54772.0,STARLINK-5452,PAYLOAD,2024-02-03 12:36:03,15.08840268,0.0001488,53.2161,224.2224,81.0443,279.0718,3.9142e-05,3.35e-06,0.0,0 STARLINK-5452,1 54772U 22175Q   24034.52503558  .00000335  00000-0  39142-4 0  9992,2 54772  53.2161 224.2224 0001488  81.0443 279.0718 15.08840268 64617,6917.88,95.438,540.774,538.715,0.0
54772.0,STARLINK-5452,PAYLOAD,2024-02-03 18:57:35,15.08839917,0.0001349,53.2158,223.0316,93.5857,266.5289,3.5753e-05,2.81e-06,0.0,0 STARLINK-5452,1 54772U 22175Q   24034.78999491  .00000281  00000-0  35753-4 0  9999,2 54772  53.2158 223.0316 0001349  93.5857 266.5289 15.08839917 62492,6917.881,95.438,540.679,538.812,0.0
54772.0,STARLINK-5452,PAYLOAD,2024-02-04 12:26:50,15.08839997,0.0001353,53.2159,219.7605,93.6674,266.4473,3.7732e-05,3.13e-06,0.0,0 STARLINK-5452,1 54772U 22175Q   24035.51863509  .00000313  00000-0  37732-4 0  9996,2 54772  53.2159 219.7605 0001353  93.6674 266.4473 15.08839997 64763,6917.88,95.438,540.681,538.809,0.0
54772.0,STARLINK-5452,PAYLOAD,2024-02-04 18:48:22,15.08841423,0.0001346,53.2161,218.5712,93.5528,266.5618,4.5275e-05,4.33e-06,0.0,0 STARLINK-5452,1 54772U 22175Q   24035.78359384  .00000433  00000-0  45275-4 0  9990,2 54772  53.2161 218.5712 0001346  93.5528 266.5618 15.08841423 64805,6917.876,95.437,540.672,538.81,0.0
54772.0,STARLINK-5452,PAYLOAD,2024-02-05 18:39:09,15.08836929,0.0001325,53.2163,214.1105,92.9438,267.1706,3.0153e-05,1.92e-06,0.0,0 STARLINK-5452,1 54772U 22175Q   24036.77719832  .00000192  00000-0  30153-4 0  9999,2 54772  53.2163 214.1105 0001325  92.9438 267.1706 15.08836929 62791,6917.89,95.438,540.671,538.838,0.0
54772.0,STARLINK-5452,PAYLOAD,2024-02-06 10:33:01,15.08834691,0.0001471,53.2171,211.1386,108.6124,251.5028,1.2731e-05,-8.5e-07,0.0,0 STARLINK-5452,1 54772U 22175Q   24037.43960184 -.00000085  00000-0  12731-4 0  9995,2 54772  53.2171 211.1386 0001471 108.6124 251.5028 15.08834691 65057,6917.897,95.438,540.779,538.744,0.0
54772.0,STARLINK-5452,PAYLOAD,2024-02-06 16:54:34,15.08833215,0.0001429,53.217,209.9476,107.083,253.0319,-9.2042e-06,-4.34e-06,0.0,0 STARLINK-5452,1 54772U 22175Q   24037.70456454 -.00000434  00000-0 -92042-5 0  9998,2 54772  53.2170 209.9476 0001429 107.0830 253.0319 15.08833215 62936,6917.901,95.438,540.755,538.778,0.0
54772.0,STARLINK-5452,PAYLOAD,2024-02-07 10:23:48,15.08835623,0.0001528,53.2174,206.6755,112.6898,247.4255,7.9333e-05,9.75e-06,0.0,0 STARLINK-5452,1 54772U 22175Q   24038.43320205  .00000975  00000-0  79333-4 0  9998,2 54772  53.2174 206.6755 0001528 112.6898 247.4255 15.08835623 65204,6917.894,95.438,540.816,538.702,0.0
54772.0,STARLINK-5452,PAYLOAD,2024-02-07 18:20:43,15.0884279,0.0001286,53.2165,205.1906,96.9911,263.1228,0.00011847,1.598e-05,0.0,0 STARLINK-5452,1 54772U 22175Q   24038.76439793  .00001598  00000-0  11847-3 0  9994,2 54772  53.2165 205.1906 0001286  96.9911 263.1228 15.08842790 63090,6917.872,95.437,540.626,538.847,0.0
54772.0,STARLINK-5452,PAYLOAD,2024-02-07 21:31:30,15.08844872,0.0001281,53.2162,204.5952,94.2965,265.8173,0.00013452,1.854e-05,0.0,0 STARLINK-5452,1 54772U 22175Q   24038.89687607  .00001854  00000-0  13452-3 0  9996,2 54772  53.2162 204.5952 0001281  94.2965 265.8173 15.08844872 65279,6917.865,95.437,540.617,538.844,0.0
54772.0,STARLINK-5452,PAYLOAD,2024-02-08 03:53:03,15.08834172,0.0001334,53.2158,203.4032,98.2817,261.8326,7.2783e-05,8.7e-06,0.0,0 STARLINK-5452,1 54772U 22175Q   24039.16184533  .00000870  00000-0  72783-4 0  9997,2 54772  53.2158 203.4032 0001334  98.2817 261.8326 15.08834172 63153,6917.898,95.438,540.686,538.84,0.0
54772.0,STARLINK-5452,PAYLOAD,2024-02-08 10:14:36,15.0883218,0.0001262,53.2159,202.216,87.9587,272.155,4.5429e-05,4.35e-06,0.0,0 STARLINK-5452,1 54772U 22175Q   24039.42681013  .00000435  00000-0  45429-4 0  9995,2 54772  53.2159 202.2160 0001262  87.9587 272.1550 15.08832180 65357,6917.904,95.438,540.642,538.896,0.0
54772.0,STARLINK-5452,PAYLOAD,2024-02-08 18:11:31,15.08835415,0.0001166,53.2163,200.7298,89.9311,270.1815,7.5643e-05,9.16e-06,0.0,0 STARLINK-5452,1 54772U 22175Q   24039.75800888  .00000916  00000-0  75643-4 0  9999,2 54772  53.2163 200.7298 0001166  89.9311 270.1815 15.08835415 65409,6917.894,95.438,540.566,538.953,0.0
54772.0,STARLINK-5452,PAYLOAD,2024-02-09 10:05:22,15.08847598,0.000116,53.2171,197.7557,89.5926,270.5199,7.4748e-05,9.02e-06,0.0,0 STARLINK-5452,1 54772U 22175Q   24040.42040175  .00000902  00000-0  74748-4 0  9990,2 54772  53.2171 197.7557 0001160  89.5926 270.5199 15.08847598 63348,6917.857,95.437,540.525,538.92,0.0
54772.0,STARLINK-5452,PAYLOAD,2024-02-09 18:02:17,15.08854541,0.0001217,53.2158,196.2693,90.1676,269.9456,0.00022768,3.339e-05,0.0,0 STARLINK-5452,1 54772U 22175Q   24040.75159634  .00003339  00000-0  22768-3 0  9998,2 54772  53.2158 196.2693 0001217  90.1676 269.9456 15.08854541 63390,6917.836,95.437,540.543,538.859,0.0
54772.0,STARLINK-5452,PAYLOAD,2024-02-10 09:56:10,15.08841326,0.0001319,53.2163,193.2959,90.4693,269.645,0.00018613,2.676e-05,0.0,0 STARLINK-5452,1 54772U 22175Q   24041.41400495  .00002676  00000-0  18613-3 0  9993,2 54772  53.2163 193.2959 0001319  90.4693 269.6450 15.08841326 63492,6917.876,95.437,540.654,538.829,0.0
54772.0,STARLINK-5452,PAYLOAD,2024-02-10 16:17:42,15.08843213,0.000124,53.2158,192.1057,89.9002,270.2133,0.00015664,2.206e-05,0.0,0 STARLINK-5452,1 54772U 22175Q   24041.67896488  .00002206  00000-0  15664-3 0  9994,2 54772  53.2158 192.1057 0001240  89.9002 270.2133 15.08843213 65690,6917.871,95.437,540.593,538.878,0.0
54772.0,STARLINK-5452,PAYLOAD,2024-02-11 14:33:06,15.08852976,0.0001424,53.2171,187.9439,82.5596,277.5558,0.00017747,2.539e-05,0.0,0 STARLINK-5452,1 54772U 22175Q   24042.60631964  .00002539  00000-0  17747-3 0  9997,2 54772  53.2171 187.9439 0001424  82.5596 277.5558 15.08852976 65835,6917.841,95.437,540.691,538.721,0.0
54772.0,STARLINK-5452,PAYLOAD,2024-02-11 16:08:29,15.08852639,0.0001427,53.2169,187.646,80.776,279.3393,0.00027473,4.089e-05,0.0,0 STARLINK-5452,1 54772U 22175Q   24042.67256030  .00004089  00000-0  27473-3 0  9990,2 54772  53.2169 187.6460 0001427  80.7760 279.3393 15.08852639 63683,6917.842,95.437,540.694,538.72,0.0
54772.0,STARLINK-5452,PAYLOAD,2024-02-12 14:23:53,15.08840521,0.0001553,53.2177,183.4861,89.1156,271.0014,0.00011515,1.545e-05,0.0,0 STARLINK-5452,1 54772U 22175Q   24043.59992469  .00001545  00000-0  11515-3 0  9999,2 54772  53.2177 183.4861 0001553  89.1156 271.0014 15.08840521 65984,6917.879,95.438,540.818,538.669,0.0
54772.0,STARLINK-5452,PAYLOAD,2024-02-12 15:59:16,15.08840044,0.0001518,53.2173,183.1888,81.6394,278.477,0.00013523,1.865e-05,0.0,0 STARLINK-5452,1 54772U 22175Q   24043.66616556  .00001865  00000-0  13523-3 0  9993,2 54772  53.2173 183.1888 0001518  81.6394 278.4770 15.08840044 63830,6917.88,95.438,540.795,538.695,0.0
54772.0,STARLINK-5452,PAYLOAD,2024-02-13 14:14:40,15.08836915,0.0001509,53.2171,179.0225,90.4865,269.63,-3.6309e-05,-8.66e-06,0.0,0 STARLINK-5452,1 54772U 22175Q   24044.59352836 -.00000866  00000-0 -36309-4 0  9994,2 54772  53.2171 179.0225 0001509  90.4865 269.6300 15.08836915 66137,6917.89,95.438,540.799,538.711,0.0
54772.0,STARLINK-5452,PAYLOAD,2024-02-13 15:50:03,15.08840785,0.0001499,53.2176,178.7297,88.5659,271.5505,2.8e-05,1.58e-06,0.0,0 STARLINK-5452,1 54772U 22175Q   24044.65976530  .00000158  00000-0  28000-4 0  9995,2 54772  53.2176 178.7297 0001499  88.5659 271.5505 15.08840785 66144,6917.878,95.438,540.78,538.706,0.0
54772.0,STARLINK-5452,PAYLOAD,2024-02-14 12:30:04,15.0884002,0.0001551,53.2176,174.8657,108.6504,251.4657,0.00010268,1.347e-05,0.0,0 STARLINK-5452,1 54772U 22175Q   24045.52088873  .00001347  00000-0  10268-3 0  9993,2 54772  53.2176 174.8657 0001551 108.6504 251.4657 15.08840020 64115,6917.88,95.438,540.818,538.672,0.0
54772.0,STARLINK-5452,PAYLOAD,2024-02-14 14:05:27,15.08841249,0.000149,53.2173,174.5681,105.1557,254.96,0.00011788,1.589e-05,0.0,0 STARLINK-5452,1 54772U 22175Q   24045.58712845  .00001589  00000-0  11788-3 0  9998,2 54772  53.2173 174.5681 0001490 105.1557 254.9600 15.08841249 66288,6917.877,95.437,540.772,538.711,0.0
54772.0,STARLINK-5452,PAYLOAD,2024-02-14 15:40:51,15.08841325,0.0001515,53.217,174.2692,106.6782,253.4376,0.00011622,1.562e-05,0.0,0 STARLINK-5452,1 54772U 22175Q   24045.65336851  .00001562  00000-0  11622-3 0  9993,2 54772  53.2170 174.2692 0001515 106.6782 253.4376 15.08841325 66298,6917.876,95.437,540.789,538.693,0.0
54772.0,STARLINK-5452,PAYLOAD,2024-02-15 07:34:43,15.08826717,0.0002075,53.2166,171.2938,92.4325,267.6904,-8.41e-05,-1.626e-05,0.0,0 STARLINK-5452,1 54772U 22175Q   24046.31578098 -.00001626  00000-0 -84100-4 0  9993,2 54772  53.2166 171.2938 0002075  92.4325 267.6904 15.08826717 64234,6917.921,95.438,541.221,538.351,0.0
54772.0,STARLINK-5452,PAYLOAD,2024-02-15 13:56:17,15.08805727,0.0001258,53.216,170.1019,90.7196,269.394,-0.00034865,-5.827e-05,0.0,0 STARLINK-5452,1 54772U 22175Q   24046.58075476 -.00005827  00000-0 -34865-3 0  9993,2 54772  53.2160 170.1019 0001258  90.7196 269.3940 15.08805727 66436,6917.985,95.44,540.72,538.98,0.0
54772.0,STARLINK-5452,PAYLOAD,2024-02-15 17:07:03,15.08809308,0.0001358,53.2167,169.507,91.0715,269.0433,-0.00028903,-4.881e-05,0.0,0 STARLINK-5452,1 54772U 22175Q   24046.71323547 -.00004881  00000-0 -28903-3 0  9998,2 54772  53.2167 169.5070 0001358  91.0715 269.0433 15.08809308 64299,6917.974,95.439,540.779,538.9,0.0
54772.0,STARLINK-5452,PAYLOAD,2024-02-16 12:11:39,15.08848727,0.0001651,53.2157,165.9447,55.5179,304.5969,0.00022281,3.261e-05,0.0,0 STARLINK-5452,1 54772U 22175Q   24047.50810125  .00003261  00000-0  22281-3 0  9991,2 54772  53.2157 165.9447 0001651  55.5179 304.5969 15.08848727 64412,6917.854,95.437,540.861,538.577,0.0
